1 39615U 14010D   17201.84066543 +.00709923 +35306-5 +11513-3 0  9993
2 39615 048.3782 137.1624 1936502 283.7148 055.6440 11.96908656062071
1 39615U 14010D   17202.17459874 +.00794413 +35422-5 +12860-3 0  9996
2 39615 048.3783 136.1163 1934079 284.6621 054.8529 11.97450918062121
1 39615U 14010D   17202.25805824 +.00784364 +35446-5 +12688-3 0  9993
2 39615 048.3783 135.8548 1933480 284.8986 054.6560 11.97586554062135
1 39615U 14010D   17202.84201392 +.00826429 +35642-5 +13460-3 0  9994
2 39615 048.3782 134.0236 1928964 286.5571 053.2860 11.98552589062207
1 39615U 14010D   17203.25883701 +.00868519 +35793-5 +14039-3 0  9996
2 39615 048.3784 132.7152 1925889 287.7415 052.3141 11.99265519062256
1 39615U 14010D   17203.75869678 +.00849621 +35963-5 +13715-3 0  9990
2 39615 048.3787 131.1434 1922066 289.1640 051.1565 12.00116241062319
1 39615U 14010D   17204.25818123 +.00928499 +36173-5 +14945-3 0  9996
2 39615 048.3785 129.5713 1917808 290.5881 050.0107 12.01069619062372
1 39615U 14010D   17204.84043932 +.00905434 +36389-5 +14561-3 0  9996
2 39615 048.3786 127.7352 1913150 292.2506 048.6812 12.02103187062445
1 39615U 14010D   17205.25602280 +.00963289 +36574-5 +15478-3 0  9995
2 39615 048.3784 126.4228 1909567 293.4384 047.7407 12.02898833062499
1 39615U 14010D   17205.83738269 +.00950608 +36811-5 +15238-3 0  9995
2 39615 048.3782 124.5837 1904641 295.1035 046.4308 12.03998901062564
1 39615U 14010D   17206.16934724 +.00992478 +36968-5 +15900-3 0  9996
2 39615 048.3778 123.5326 1901680 296.0562 045.6875 12.04656164062604